[{"OBJECT_NAME":"STARLINK-35996","OBJECT_ID":"2025-278K","EPOCH":"2026-03-09T10:22:44.358240","MEAN_MOTION":15.27581683,"ECCENTRICITY":0.00010291,"INCLINATION":42.9976,"RA_OF_ASC_NODE":115.4772,"ARG_OF_PERICENTER":262.9812,"MEAN_ANOMALY":97.0923,"EPHEMERIS_TYPE":0,"CLASSIFICATION_TYPE":"U","NORAD_CAT_ID":66800,"ELEMENT_SET_NO":999,"REV_AT_EPOCH":1517,"BSTAR":0.0011010582,"MEAN_MOTION_DOT":0.00030162,"MEAN_MOTION_DDOT":0},{"OBJECT_NAME":"SL-3 R\/B","OBJECT_ID":"1982-027B","EPOCH":"2026-03-09T22:44:40.208640","MEAN_MOTION":15.28335844,"ECCENTRICITY":0.00065199,"INCLINATION":81.188,"RA_OF_ASC_NODE":37.4466,"ARG_OF_PERICENTER":276.581,"MEAN_ANOMALY":83.4683,"EPHEMERIS_TYPE":0,"CLASSIFICATION_TYPE":"U","NORAD_CAT_ID":13121,"ELEMENT_SET_NO":999,"REV_AT_EPOCH":39859,"BSTAR":0.00030526741,"MEAN_MOTION_DOT":8.453e-5,"MEAN_MOTION_DDOT":0}]
